0 SL-16 DEB
1 25403U 98043K   13286.88591076  .00000053  00000-0  79018-4 0  3296
2 25403 098.5681 241.5319 0214013 257.1648 169.6790 13.77324322767082
0 SL-16 DEB
1 25403U 98043K   13289.13759529  .00000080  00000-0  10158-3 0  3307
2 25403 098.5689 243.5645 0214061 251.0631 174.3912 13.77324914767392
0 SL-16 DEB
1 25403U 98043K   13291.47269742  .00000087  00000-0  10744-3 0  3319
2 25403 098.5694 245.6726 0214096 244.7357 232.7245 13.77325406767714
0 SL-16 DEB
1 25403U 98043K   13293.85716719  .00000111  00000-0  12813-3 0  3322
2 25403 098.5696 247.8257 0214158 238.2716 175.8487 13.77325924768042
0 SL-16 DEB
1 25403U 98043K   13295.89493179  .00000110  00000-0  12712-3 0  3338
2 25403 098.5697 249.6658 0214223 232.7536 199.8723 13.77326419768320
